NORAD_CAT_ID,OBJECT_NAME,OBJECT_TYPE,EPOCH,MEAN_MOTION,ECCENTRICITY,INCLINATION,RA_OF_ASC_NODE,ARG_OF_PERICENTER,MEAN_ANOMALY,BSTAR,MEAN_MOTION_DOT,MEAN_MOTION_DDOT,TLE_LINE0,TLE_LINE1,TLE_LINE2,SEMIMAJOR_AXIS,PERIOD,APOGEE,PERIGEE,DECAYED
55771.0,STARLINK-5591,PAYLOAD,2023-05-03 17:29:31,15.69930524,0.0003652,70.0002,343.776,267.7905,92.2872,5.6376e-05,6.573e-05,0.0,0 STARLINK-5591,1 55771U 23028AG  23123.72883167  .00006573  00000-0  56376-4 0  9995,2 55771  70.0002 343.7760 0003652 267.7905  92.2872 15.69930524 10249,6737.233,91.724,361.558,356.637,0.0
55771.0,STARLINK-5591,PAYLOAD,2023-05-03 23:36:31,15.69936413,0.0003401,70.0021,343.0618,258.6482,101.4332,6.5502e-05,7.675e-05,0.0,0 STARLINK-5591,1 55771U 23028AG  23123.98369447  .00007675  00000-0  65502-4 0  9998,2 55771  70.0021 343.0618 0003401 258.6482 101.4332 15.69936413 10287,6737.216,91.723,361.372,356.79,0.0
55771.0,STARLINK-5591,PAYLOAD,2023-05-04 17:57:33,15.69923383,0.0003064,70.0009,340.9111,265.8039,94.2807,1.6536e-05,1.776e-05,0.0,0 STARLINK-5591,1 55771U 23028AG  23124.74830097  .00001776  00000-0  16536-4 0  9996,2 55771  70.0009 340.9111 0003064 265.8039  94.2807 15.69923383 10390,6737.253,91.724,361.182,357.054,0.0
55771.0,STARLINK-5591,PAYLOAD,2023-05-05 16:53:50,15.69924539,0.0003509,70.0001,338.2212,268.8279,91.2515,1.1366e-05,1.154e-05,0.0,0 STARLINK-5591,1 55771U 23028AG  23125.70405218  .00001154  00000-0  11366-4 0  9992,2 55771  70.0001 338.2212 0003509 268.8279  91.2515 15.69924539 10552,6737.25,91.724,361.479,356.751,0.0
55771.0,STARLINK-5591,PAYLOAD,2023-05-06 00:32:35,15.69938242,0.0003649,69.9997,337.3285,284.6275,75.4516,4.6721e-05,5.412e-05,0.0,0 STARLINK-5591,1 55771U 23028AG  23126.02263172  .00005412  00000-0  46721-4 0  9993,2 55771  69.9997 337.3285 0003649 284.6275  75.4516 15.69938242 10595,6737.211,91.723,361.534,356.617,0.0
55771.0,STARLINK-5591,PAYLOAD,2023-05-06 15:50:06,15.69931343,0.000364,69.9998,335.5353,273.8411,86.2368,3.0757e-05,3.488e-05,0.0,0 STARLINK-5591,1 55771U 23028AG  23126.65979914  .00003488  00000-0  30757-4 0  9993,2 55771  69.9998 335.5353 0003640 273.8411  86.2368 15.69931343 10708,6737.23,91.724,361.548,356.643,0.0
55771.0,STARLINK-5591,PAYLOAD,2023-05-06 23:28:52,15.69910159,0.0003415,70.0,334.6394,275.9314,84.1492,-4.385e-05,-5.479e-05,0.0,0 STARLINK-5591,1 55771U 23028AG  23126.97838770 -.00005479  00000-0 -43850-4 0  9994,2 55771  70.0000 334.6394 0003415 275.9314  84.1492 15.69910159 10746,6737.291,91.725,361.457,356.855,0.0
55771.0,STARLINK-5591,PAYLOAD,2023-05-07 16:18:09,15.69915187,0.0003645,70.0004,332.6668,272.9075,87.1703,-1.3036e-05,-1.78e-05,0.0,0 STARLINK-5591,1 55771U 23028AG  23127.67927338 -.00001780  00000-0 -13036-4 0  9995,2 55771  70.0004 332.6668 0003645 272.9075  87.1703 15.69915187 10854,6737.277,91.725,361.597,356.686,0.0
55771.0,STARLINK-5591,PAYLOAD,2023-05-07 22:25:09,15.69933754,0.0003094,70.0002,331.9526,251.2259,108.8601,4.4625e-05,5.158e-05,0.0,0 STARLINK-5591,1 55771U 23028AG  23127.93413571  .00005158  00000-0  44625-4 0  9992,2 55771  70.0002 331.9526 0003094 251.2259 108.8601 15.69933754 10891,6737.224,91.724,361.173,357.004,0.0
55771.0,STARLINK-5591,PAYLOAD,2023-05-08 19:49:40,15.69937995,0.0003258,69.9993,329.4421,266.0881,93.9943,5.317e-05,6.189e-05,0.0,0 STARLINK-5591,1 55771U 23028AG  23128.82616717  .00006189  00000-0  53170-4 0  9998,2 55771  69.9993 329.4421 0003258 266.0881  93.9943 15.69937995 11031,6737.211,91.723,361.271,356.881,0.0
55771.0,STARLINK-5591,PAYLOAD,2023-05-08 21:21:25,15.69936106,0.0003425,69.9996,329.2641,266.3843,93.6961,4.8002e-05,5.566e-05,0.0,0 STARLINK-5591,1 55771U 23028AG  23128.88988416  .00005566  00000-0  48002-4 0  9998,2 55771  69.9996 329.2641 0003425 266.3843  93.6961 15.69936106 11055,6737.217,91.723,361.389,356.774,0.0
55771.0,STARLINK-5591,PAYLOAD,2023-05-09 14:10:42,15.69926521,0.0003753,69.9972,327.2917,270.8297,89.2469,-7.2029e-06,-1.079e-05,0.0,0 STARLINK-5591,1 55771U 23028AG  23129.59076860 -.00001079  00000-0 -72029-5 0  9992,2 55771  69.9972 327.2917 0003753 270.8297  89.2469 15.69926521 11166,6737.244,91.724,361.638,356.581,0.0
55771.0,STARLINK-5591,PAYLOAD,2023-05-09 23:21:13,15.69926912,0.0003542,69.9996,326.2163,267.4297,92.6493,1.15e-05,1.17e-05,0.0,0 STARLINK-5591,1 55771U 23028AG  23129.97307105  .00001170  00000-0  11500-4 0  9999,2 55771  69.9996 326.2163 0003542 267.4297  92.6493 15.69926912 11228,6737.243,91.724,361.494,356.722,0.0
55771.0,STARLINK-5591,PAYLOAD,2023-05-10 19:13:59,15.69935806,0.0003408,69.9993,323.8879,260.1746,99.9065,3.5742e-05,4.089e-05,0.0,0 STARLINK-5591,1 55771U 23028AG  23130.80138492  .00004089  00000-0  35742-4 0  9990,2 55771  69.9993 323.8879 0003408 260.1746  99.9065 15.69935806 11342,6737.218,91.723,361.379,356.787,0.0
55771.0,STARLINK-5591,PAYLOAD,2023-05-11 05:56:16,15.69920177,0.0003605,70.0004,322.6332,271.405,88.6733,3.8583e-06,2.51e-06,0.0,0 STARLINK-5591,1 55771U 23028AG  23131.24740787  .00000251  00000-0  38583-5 0  9999,2 55771  70.0004 322.6332 0003605 271.4050  88.6733 15.69920177 11411,6737.262,91.724,361.556,356.699,0.0
55771.0,STARLINK-5591,PAYLOAD,2023-05-11 15:06:47,15.69915637,0.0003348,70.001,321.5589,274.4141,85.6672,-6.353e-06,-9.76e-06,0.0,0 STARLINK-5591,1 55771U 23028AG  23131.62971246 -.00000976  00000-0 -63530-5 0  9993,2 55771  70.0010 321.5589 0003348 274.4141  85.6672 15.69915637 11489,6737.275,91.725,361.396,356.885,0.0
55771.0,STARLINK-5591,PAYLOAD,2023-05-11 22:45:32,15.69932081,0.0003343,69.9995,320.6645,260.0652,100.0167,2.9752e-05,3.367e-05,0.0,0 STARLINK-5591,1 55771U 23028AG  23131.94828938  .00003367  00000-0  29752-4 0  9999,2 55771  69.9995 320.6645 0003343 260.0652 100.0167 15.69932081 11533,6737.228,91.724,361.346,356.841,0.0
55771.0,STARLINK-5591,PAYLOAD,2023-05-12 15:34:48,15.69932588,0.0003047,69.9992,318.6938,260.7781,99.307,2.1949e-05,2.428e-05,0.0,0 STARLINK-5591,1 55771U 23028AG  23132.64917268  .00002428  00000-0  21949-4 0  9999,2 55771  69.9992 318.6938 0003047 260.7781  99.3070 15.69932588 11639,6737.227,91.724,361.145,357.039,0.0
55771.0,STARLINK-5591,PAYLOAD,2023-05-13 12:59:20,15.69917163,0.0003267,70.0019,316.1903,254.2549,105.8286,-3.31e-06,-6.1e-06,0.0,0 STARLINK-5591,1 55771U 23028AG  23133.54121469 -.00000610  00000-0 -33100-5 0  9995,2 55771  70.0019 316.1903 0003267 254.2549 105.8286 15.69917163 11770,6737.271,91.725,361.337,356.935,0.0
55771.0,STARLINK-5591,PAYLOAD,2023-05-13 20:38:06,15.69925456,0.0003296,70.0002,315.2954,252.5513,107.5322,4.7858e-06,3.63e-06,0.0,0 STARLINK-5591,1 55771U 23028AG  23133.85979451  .00000363  00000-0  47858-5 0  9999,2 55771  70.0002 315.2954 0003296 252.5513 107.5322 15.69925456 11833,6737.247,91.724,361.333,356.892,0.0
55771.0,STARLINK-5591,PAYLOAD,2023-05-13 22:09:51,15.6992862,0.0003291,70.0012,315.1164,253.0574,107.0262,1.5956e-05,1.707e-05,0.0,0 STARLINK-5591,1 55771U 23028AG  23133.92351056  .00001707  00000-0  15956-4 0  9998,2 55771  70.0012 315.1164 0003291 253.0574 107.0262 15.69928620 11838,6737.238,91.724,361.32,356.886,0.0
55771.0,STARLINK-5591,PAYLOAD,2023-05-14 13:27:22,15.6993506,0.0003448,70.0003,313.3214,267.7044,92.3757,4.1891e-05,4.829e-05,0.0,0 STARLINK-5591,1 55771U 23028AG  23134.56067365  .00004829  00000-0  41891-4 0  9991,2 55771  70.0003 313.3214 0003448 267.7044  92.3757 15.69935060 11945,6737.22,91.724,361.408,356.762,0.0
55771.0,STARLINK-5591,PAYLOAD,2023-05-14 21:06:07,15.69924436,0.0003784,69.999,312.4244,263.7247,96.3518,2.8949e-06,1.35e-06,0.0,0 STARLINK-5591,1 55771U 23028AG  23134.87925879  .00000135  00000-0  28949-5 0  9994,2 55771  69.9990 312.4244 0003784 263.7247  96.3518 15.69924436 11993,6737.25,91.724,361.665,356.566,0.0
55771.0,STARLINK-5591,PAYLOAD,2023-05-15 10:51:54,15.69916225,0.0003581,69.9986,310.8116,265.0838,94.9949,2.3991e-05,2.672e-05,0.0,0 STARLINK-5591,1 55771U 23028AG  23135.45271739  .00002672  00000-0  23991-4 0  9997,2 55771  69.9986 310.8116 0003581 265.0838  94.9949 15.69916225 12073,6737.274,91.725,361.551,356.726,0.0
55771.0,STARLINK-5591,PAYLOAD,2023-05-15 12:23:39,15.69918086,0.0003511,69.9988,310.6325,265.3732,94.7063,2.4096e-05,2.685e-05,0.0,0 STARLINK-5591,1 55771U 23028AG  23135.51643393  .00002685  00000-0  24096-4 0  9994,2 55771  69.9988 310.6325 0003511 265.3732  94.7063 15.69918086 12098,6737.268,91.725,361.499,356.768,0.0
55771.0,STARLINK-5591,PAYLOAD,2023-05-15 18:30:39,15.69928411,0.0003469,70.0008,309.9182,256.9127,103.1681,2.784e-05,3.137e-05,0.0,0 STARLINK-5591,1 55771U 23028AG  23135.77129529  .00003137  00000-0  27840-4 0  9995,2 55771  70.0008 309.9182 0003469 256.9127 103.1681 15.69928411 12120,6737.239,91.724,361.441,356.767,0.0
55771.0,STARLINK-5591,PAYLOAD,2023-05-16 05:12:55,15.69940448,0.0004271,69.9997,308.662,270.7999,89.2708,1.5916e-05,1.702e-05,0.0,0 STARLINK-5591,1 55771U 23028AG  23136.21730492  .00001702  00000-0  15916-4 0  9999,2 55771  69.9997 308.6620 0004271 270.7999  89.2708 15.69940448 12195,6737.204,91.723,361.947,356.192,0.0
55771.0,STARLINK-5591,PAYLOAD,2023-05-16 12:51:41,15.69929519,0.0003573,70.0011,307.7659,266.6523,93.4264,2.0913e-05,2.303e-05,0.0,0 STARLINK-5591,1 55771U 23028AG  23136.53589512  .00002303  00000-0  20913-4 0  9990,2 55771  70.0011 307.7659 0003573 266.6523  93.4264 15.69929519 12255,6737.236,91.724,361.508,356.693,0.0
55771.0,STARLINK-5591,PAYLOAD,2023-05-16 17:26:56,15.69943677,0.0003602,70.0016,307.2311,275.0425,85.036,5.9624e-05,6.968e-05,0.0,0 STARLINK-5591,1 55771U 23028AG  23136.72703986  .00006968  00000-0  59624-4 0  9996,2 55771  70.0016 307.2311 0003602 275.0425  85.0360 15.69943677 12286,6737.195,91.723,361.487,356.633,0.0
55771.0,STARLINK-5591,PAYLOAD,2023-05-16 22:02:11,15.69937162,0.0003404,70.0011,306.6921,265.724,94.3567,5.4731e-05,6.377e-05,0.0,0 STARLINK-5591,1 55771U 23028AG  23136.91819263  .00006377  00000-0  54731-4 0  9991,2 55771  70.0011 306.6921 0003404 265.7240  94.3567 15.69937162 12309,6737.214,91.723,361.372,356.785,0.0
